[{"OBJECT_NAME":"STARLINK-4127","OBJECT_ID":"2022-086S","EPOCH":"2025-08-01T02:35:40.768800","MEAN_MOTION":15.08838267,"ECCENTRICITY":0.0001477,"INCLINATION":53.2173,"RA_OF_ASC_NODE":104.3467,"ARG_OF_PERICENTER":97.6475,"MEAN_ANOMALY":262.4684,"EPHEMERIS_TYPE":0,"CLASSIFICATION_TYPE":"U","NORAD_CAT_ID":53258,"ELEMENT_SET_NO":999,"REV_AT_EPOCH":16758,"BSTAR":-3.8906e-5,"MEAN_MOTION_DOT":-9.07e-6,"MEAN_MOTION_DDOT":0},{"OBJECT_NAME":"STARLINK-4140","OBJECT_ID":"2022-086T","EPOCH":"2025-07-31T20:45:52.104960","MEAN_MOTION":15.0884786,"ECCENTRICITY":0.0001337,"INCLINATION":53.2161,"RA_OF_ASC_NODE":105.0846,"ARG_OF_PERICENTER":87.4781,"MEAN_ANOMALY":272.6364,"EPHEMERIS_TYPE":0,"CLASSIFICATION_TYPE":"U","NORAD_CAT_ID":53259,"ELEMENT_SET_NO":999,"REV_AT_EPOCH":16773,"BSTAR":-0.00011683,"MEAN_MOTION_DOT":-2.147e-5,"MEAN_MOTION_DDOT":0},{"OBJECT_NAME":"STARLINK-4062","OBJECT_ID":"2022-086V","EPOCH":"2025-07-31T21:23:02.160672","MEAN_MOTION":15.08833441,"ECCENTRICITY":0.0001633,"INCLINATION":53.218,"RA_OF_ASC_NODE":105.3267,"ARG_OF_PERICENTER":88.3508,"MEAN_ANOMALY":271.7671,"EPHEMERIS_TYPE":0,"CLASSIFICATION_TYPE":"U","NORAD_CAT_ID":53261,"ELEMENT_SET_NO":999,"REV_AT_EPOCH":16773,"BSTAR":-1.6966e-5,"MEAN_MOTION_DOT":-5.58e-6,"MEAN_MOTION_DDOT":0},{"OBJECT_NAME":"STARLINK-4085","OBJECT_ID":"2022-086W","EPOCH":"2025-07-31T23:09:00.401472","MEAN_MOTION":15.08839432,"ECCENTRICITY":0.0001542,"INCLINATION":53.2185,"RA_OF_ASC_NODE":104.9931,"ARG_OF_PERICENTER":95.4227,"MEAN_ANOMALY":264.6941,"EPHEMERIS_TYPE":0,"CLASSIFICATION_TYPE":"U","NORAD_CAT_ID":53262,"ELEMENT_SET_NO":999,"REV_AT_EPOCH":16774,"BSTAR":-1.5516e-5,"MEAN_MOTION_DOT":-5.35e-6,"MEAN_MOTION_DDOT":0},{"OBJECT_NAME":"STARLINK-4130","OBJECT_ID":"2022-086X","EPOCH":"2025-07-31T22:53:06.952416","MEAN_MOTION":15.08829288,"ECCENTRICITY":0.0001528,"INCLINATION":53.2181,"RA_OF_ASC_NODE":105.0464,"ARG_OF_PERICENTER":94.4525,"MEAN_ANOMALY":265.6641,"EPHEMERIS_TYPE":0,"CLASSIFICATION_TYPE":"U","NORAD_CAT_ID":53263,"ELEMENT_SET_NO":999,"REV_AT_EPOCH":16774,"BSTAR":0.00010024,"MEAN_MOTION_DOT":1.307e-5,"MEAN_MOTION_DDOT":0},{"OBJECT_NAME":"STARLINK-3950","OBJECT_ID":"2022-086Y","EPOCH":"2025-08-01T00:39:05.474880","MEAN_MOTION":15.0884133,"ECCENTRICITY":0.000136,"INCLINATION":53.2173,"RA_OF_ASC_NODE":104.7136,"ARG_OF_PERICENTER":89.0317,"MEAN_ANOMALY":271.0831,"EPHEMERIS_TYPE":0,"CLASSIFICATION_TYPE":"U","NORAD_CAT_ID":53264,"ELEMENT_SET_NO":999,"REV_AT_EPOCH":16757,"BSTAR":2.1067e-5,"MEAN_MOTION_DOT":4.7e-7,"MEAN_MOTION_DDOT":0},{"OBJECT_NAME":"STARLINK-4097","OBJECT_ID":"2022-086Z","EPOCH":"2025-08-01T01:53:17.220192","MEAN_MOTION":15.08838657,"ECCENTRICITY":0.0001471,"INCLINATION":53.2181,"RA_OF_ASC_NODE":104.4874,"ARG_OF_PERICENTER":99.857,"MEAN_ANOMALY":260.2588,"EPHEMERIS_TYPE":0,"CLASSIFICATION_TYPE":"U","NORAD_CAT_ID":53265,"ELEMENT_SET_NO":999,"REV_AT_EPOCH":16758,"BSTAR":3.4403e-5,"MEAN_MOTION_DOT":2.6e-6,"MEAN_MOTION_DDOT":0},{"OBJECT_NAME":"STARLINK-4058","OBJECT_ID":"2022-086AA","EPOCH":"2025-07-31T22:47:49.048800","MEAN_MOTION":15.0883693,"ECCENTRICITY":0.0001516,"INCLINATION":53.2182,"RA_OF_ASC_NODE":105.0655,"ARG_OF_PERICENTER":91.8943,"MEAN_ANOMALY":268.2222,"EPHEMERIS_TYPE":0,"CLASSIFICATION_TYPE":"U","NORAD_CAT_ID":53266,"ELEMENT_SET_NO":999,"REV_AT_EPOCH":16774,"BSTAR":-6.2982e-6,"MEAN_MOTION_DOT":-3.88e-6,"MEAN_MOTION_DDOT":0},{"OBJECT_NAME":"STARLINK-4060","OBJECT_ID":"2022-086AB","EPOCH":"2025-07-31T20:56:32.011872","MEAN_MOTION":15.08831854,"ECCENTRICITY":0.0001398,"INCLINATION":53.2181,"RA_OF_ASC_NODE":105.4116,"ARG_OF_PERICENTER":94.265,"MEAN_ANOMALY":265.8502,"EPHEMERIS_TYPE":0,"CLASSIFICATION_TYPE":"U","NORAD_CAT_ID":53267,"ELEMENT_SET_NO":999,"REV_AT_EPOCH":16773,"BSTAR":7.7203e-6,"MEAN_MOTION_DOT":-1.65e-6,"MEAN_MOTION_DDOT":0},{"OBJECT_NAME":"STARLINK-4109","OBJECT_ID":"2022-086AC","EPOCH":"2025-08-01T01:47:59.371872","MEAN_MOTION":15.08836235,"ECCENTRICITY":0.0001446,"INCLINATION":53.2179,"RA_OF_ASC_NODE":104.5027,"ARG_OF_PERICENTER":94.5372,"MEAN_ANOMALY":265.5785,"EPHEMERIS_TYPE":0,"CLASSIFICATION_TYPE":"U","NORAD_CAT_ID":53268,"ELEMENT_SET_NO":999,"REV_AT_EPOCH":16758,"BSTAR":-4.5862e-6,"MEAN_MOTION_DOT":-3.61e-6,"MEAN_MOTION_DDOT":0},{"OBJECT_NAME":"STARLINK-4057","OBJECT_ID":"2022-086AD","EPOCH":"2025-07-31T20:47:15.674496","MEAN_MOTION":15.08835342,"ECCENTRICITY":0.0001566,"INCLINATION":53.2182,"RA_OF_ASC_NODE":95.4378,"ARG_OF_PERICENTER":87.3399,"MEAN_ANOMALY":272.7772,"EPHEMERIS_TYPE":0,"CLASSIFICATION_TYPE":"U","NORAD_CAT_ID":53269,"ELEMENT_SET_NO":999,"REV_AT_EPOCH":16786,"BSTAR":1.6668e-5,"MEAN_MOTION_DOT":-2.3e-7,"MEAN_MOTION_DDOT":0},{"OBJECT_NAME":"STARLINK-4122","OBJECT_ID":"2022-086AG","EPOCH":"2025-07-31T20:52:32.248416","MEAN_MOTION":15.08877754,"ECCENTRICITY":0.0001791,"INCLINATION":53.2177,"RA_OF_ASC_NODE":95.4214,"ARG_OF_PERICENTER":76.9854,"MEAN_ANOMALY":283.1338,"EPHEMERIS_TYPE":0,"CLASSIFICATION_TYPE":"U","NORAD_CAT_ID":53272,"ELEMENT_SET_NO":999,"REV_AT_EPOCH":16786,"BSTAR":-0.00047827,"MEAN_MOTION_DOT":-7.9e-5,"MEAN_MOTION_DDOT":0},{"OBJECT_NAME":"STARLINK-4051","OBJECT_ID":"2022-086AH","EPOCH":"2025-07-31T22:01:26.803776","MEAN_MOTION":15.08837515,"ECCENTRICITY":0.0001311,"INCLINATION":53.2179,"RA_OF_ASC_NODE":95.2084,"ARG_OF_PERICENTER":90.2585,"MEAN_ANOMALY":269.8557,"EPHEMERIS_TYPE":0,"CLASSIFICATION_TYPE":"U","NORAD_CAT_ID":53273,"ELEMENT_SET_NO":999,"REV_AT_EPOCH":16786,"BSTAR":-4.6892e-5,"MEAN_MOTION_DOT":-1.034e-5,"MEAN_MOTION_DDOT":0},{"OBJECT_NAME":"STARLINK-4050","OBJECT_ID":"2022-086AJ","EPOCH":"2025-07-31T20:41:57.687072","MEAN_MOTION":15.08837292,"ECCENTRICITY":0.0001682,"INCLINATION":53.2179,"RA_OF_ASC_NODE":95.4546,"ARG_OF_PERICENTER":88.071,"MEAN_ANOMALY":272.0474,"EPHEMERIS_TYPE":0,"CLASSIFICATION_TYPE":"U","NORAD_CAT_ID":53274,"ELEMENT_SET_NO":999,"REV_AT_EPOCH":16786,"BSTAR":1.5686e-5,"MEAN_MOTION_DOT":-3.8e-7,"MEAN_MOTION_DDOT":0},{"OBJECT_NAME":"STARLINK-4179","OBJECT_ID":"2022-086AK","EPOCH":"2025-07-31T21:56:09.071232","MEAN_MOTION":15.08836029,"ECCENTRICITY":0.0001553,"INCLINATION":53.2193,"RA_OF_ASC_NODE":95.226,"ARG_OF_PERICENTER":93.4786,"MEAN_ANOMALY":266.6384,"EPHEMERIS_TYPE":0,"CLASSIFICATION_TYPE":"U","NORAD_CAT_ID":53275,"ELEMENT_SET_NO":999,"REV_AT_EPOCH":16786,"BSTAR":1.8574e-5,"MEAN_MOTION_DOT":8.0e-8,"MEAN_MOTION_DDOT":0},{"OBJECT_NAME":"STARLINK-4174","OBJECT_ID":"2022-086AL","EPOCH":"2025-07-31T20:31:21.585216","MEAN_MOTION":15.08836193,"ECCENTRICITY":0.0001291,"INCLINATION":53.2179,"RA_OF_ASC_NODE":95.4905,"ARG_OF_PERICENTER":92.7531,"MEAN_ANOMALY":267.3609,"EPHEMERIS_TYPE":0,"CLASSIFICATION_TYPE":"U","NORAD_CAT_ID":53276,"ELEMENT_SET_NO":999,"REV_AT_EPOCH":16785,"BSTAR":2.6443e-5,"MEAN_MOTION_DOT":1.33e-6,"MEAN_MOTION_DDOT":0},{"OBJECT_NAME":"STARLINK-4178","OBJECT_ID":"2022-086AM","EPOCH":"2025-07-31T23:20:56.124384","MEAN_MOTION":15.08842004,"ECCENTRICITY":0.0001214,"INCLINATION":53.2178,"RA_OF_ASC_NODE":94.9891,"ARG_OF_PERICENTER":89.4361,"MEAN_ANOMALY":270.677,"EPHEMERIS_TYPE":0,"CLASSIFICATION_TYPE":"U","NORAD_CAT_ID":53277,"ELEMENT_SET_NO":999,"REV_AT_EPOCH":16787,"BSTAR":-7.2201e-5,"MEAN_MOTION_DOT":-1.437e-5,"MEAN_MOTION_DDOT":0}]
