STARLINK-4127           
1 53258U 22086S   25213.10811075 -.00000907  00000+0 -38906-4 0  9994
2 53258  53.2173 104.3467 0001477  97.6475 262.4684 15.08838267167585
STARLINK-4140           
1 53259U 22086T   25212.86518640 -.00002147  00000+0 -11683-3 0  9999
2 53259  53.2161 105.0846 0001337  87.4781 272.6364 15.08847860167738
STARLINK-4062           
1 53261U 22086V   25212.89099723 -.00000558  00000+0 -16966-4 0  9995
2 53261  53.2180 105.3267 0001633  88.3508 271.7671 15.08833441167739
STARLINK-4085           
1 53262U 22086W   25212.96458798 -.00000535  00000+0 -15516-4 0  9990
2 53262  53.2185 104.9931 0001542  95.4227 264.6941 15.08839432167742
STARLINK-4130           
1 53263U 22086X   25212.95355269  .00001307  00000+0  10024-3 0  9993
2 53263  53.2181 105.0464 0001528  94.4525 265.6641 15.08829288167742
STARLINK-3950           
1 53264U 22086Y   25213.02714670  .00000047  00000+0  21067-4 0  9998
2 53264  53.2173 104.7136 0001360  89.0317 271.0831 15.08841330167574
STARLINK-4097           
1 53265U 22086Z   25213.07867153  .00000260  00000+0  34403-4 0  9994
2 53265  53.2181 104.4874 0001471  99.8570 260.2588 15.08838657167581
STARLINK-4058           
1 53266U 22086AA  25212.94987325 -.00000388  00000+0 -62982-5 0  9991
2 53266  53.2182 105.0655 0001516  91.8943 268.2222 15.08836930167746
STARLINK-4060           
1 53267U 22086AB  25212.87259273 -.00000165  00000+0  77203-5 0  9992
2 53267  53.2181 105.4116 0001398  94.2650 265.8502 15.08831854167735
STARLINK-4109           
1 53268U 22086AC  25213.07499273 -.00000361  00000+0 -45862-5 0  9997
2 53268  53.2179 104.5027 0001446  94.5372 265.5785 15.08836235167583
STARLINK-4057           
1 53269U 22086AD  25212.86615364 -.00000023  00000+0  16668-4 0  9990
2 53269  53.2182  95.4378 0001566  87.3399 272.7772 15.08835342167862
STARLINK-4122           
1 53272U 22086AG  25212.86981769 -.00007900  00000+0 -47827-3 0  9991
2 53272  53.2177  95.4214 0001791  76.9854 283.1338 15.08877754167866
STARLINK-4051           
1 53273U 22086AH  25212.91767134 -.00001034  00000+0 -46892-4 0  9990
2 53273  53.2179  95.2084 0001311  90.2585 269.8557 15.08837515167865
STARLINK-4050           
1 53274U 22086AJ  25212.86247323 -.00000038  00000+0  15686-4 0  9997
2 53274  53.2179  95.4546 0001682  88.0710 272.0474 15.08837292167863
STARLINK-4179           
1 53275U 22086AK  25212.91399388  .00000008  00000+0  18574-4 0  9998
2 53275  53.2193  95.2260 0001553  93.4786 266.6384 15.08836029167867
STARLINK-4174           
1 53276U 22086AL  25212.85511094  .00000133  00000+0  26443-4 0  9995
2 53276  53.2179  95.4905 0001291  92.7531 267.3609 15.08836193167858
STARLINK-4178           
1 53277U 22086AM  25212.97287181 -.00001437  00000+0 -72201-4 0  9999
2 53277  53.2178  94.9891 0001214  89.4361 270.6770 15.08842004167871
